P/2012 F2 (PANSTARRS),e,14.7014,226.9856,33.3222,6.335506,0.0618062,0.54111522,214.6651,10/12.0/2022,2000,g 12.0,4.0
# From MPEC 2022-ED3
P/2012 G1 (PANSTARRS),e,12.1728,283.2760,266.1070,4.164904,0.1159569,0.32942558,86.0233,10/12.0/2022,2000,g 15.0,4.0
# From MPC 80898
P/2012 K3 (Gibbs),e,13.1904,125.8183,172.2404,3.628099,0.1426216,0.42267138,164.2870,10/12.0/2022,2000,g 15.0,4.0
# From MPC 88326
P/2012 NJ (La Sagra),e,84.5923,315.5818,338.3823,8.465581,0.0400146,0.84680063,150.8909,10/12.0/2022,2000,g 14.5,4.0
# From MPC 81470
P/2012 O1 (McNaught),e,7.4275,91.9377,238.3175,3.541578,0.1478798,0.59436025,195.0641,10/12.0/2022,2000,g 17.5,4.0
# From MPC 80899
P/2012 O2 (McNaught),e,24.4721,120.6843,183.4746,3.625940,0.1427490,0.53212909,179.1640,10/12.0/2022,2000,g 17.0,4.0
# From MPC 82320
P/2012 T2 (PANSTARRS),e,12.5665,73.7156,310.7089,5.729026,0.0718758,0.16224327,248.1410,10/12.0/2022,2000,g 10.0,4.0
# From MPC 80900
P/2012 T3 (PANSTARRS),e,9.5597,114.3758,195.5340,6.151146,0.0646056,0.61681566,246.2142,10/12.0/2022,2000,g 15.0,4.0
# From MPC 82720
P/2012 U2 (PANSTARRS),e,10.7595,185.3248,228.2493,7.132870,0.0517378,0.49978192,187.2130,10/12.0/2022,2000,g 12.5,4.0
# From MPC 84024
P/2012 US27 (Siding Spring),e,39.3669,49.2032,0.8193,5.165132,0.0839618,0.64819811,297.8443,10/12.0/2022,2000,g 13.5,4.0
# From MPC 82721
P/2012 WA34 (Lemmon-PANSTARRS),e,6.0807,93.5694,356.5272,4.684192,0.0972192,0.34421132,333.8134,10/12.0/2022,2000,g 13.5,4.0
# From MPC 82721
P/2013 AL76 (Catalina),e,144.8658,146.0070,27.0447,6.498939,0.0594895,0.68609426,214.2071,10/12.0/2022,2000,g 16.0,4.0
# From MPEC 2022-K19
P/2013 EW90,e,31.7919,160.2925,346.0890,4.112996,0.1181589,0.19465474,71.4548,10/12.0/2022,2000,g 14.3,4.0
# From MPC 91612
P/2013 G1 (Kowalski),e,5.4587,221.3199,51.5401,6.896456,0.0544208,0.51142809,175.6798,10/12.0/2022,2000,g 11.0,4.0
# From MPC 84025
P/2013 G4 (PANSTARRS),e,5.9161,339.6360,214.6341,4.439041,0.1053830,0.40927220,12.0857,10/12.0/2022,2000,g 15.0,4.0
# From MPC 91613
P/2013 J2 (McNaught),e,15.5139,289.3577,37.8556,6.222982,0.0634901,0.65743615,211.3437,10/12.0/2022,2000,g 13.0,4.0
# From MPC 86229
P/2013 N3 (PANSTARRS),e,2.1738,17.4681,323.9670,7.394588,0.0490155,0.59312283,154.7772,10/12.0/2022,2000,g 13.0,4.0
# From MPC 85834
P/2013 N5 (PANSTARRS),e,23.4612,187.1552,176.9372,6.797128,0.0556181,0.73251767,188.1935,10/12.0/2022,2000,g 17.0,4.0
# From MPC 85834
P/2013 P1 (PANSTARRS),e,18.7242,160.5946,138.2478,8.580897,0.0392107,0.60479725,137.7269,10/12.0/2022,2000,g 12.0,4.0
# From MPC 94671
P/2013 R3 (Catalina-PANSTARRS),e,0.8648,341.9761,11.2921,3.032254,0.1866619,0.27557326,261.9679,10/12.0/2022,2000,g 14.0,4.0
# From unp
P/2013 R3-A (Catalina-PANSTARRS),e,0.8642,341.9429,11.3312,3.032112,0.1866751,0.27554290,262.0091,10/12.0/2022,2000,g  9.0,4.0
# From MPEC 2015-M77
P/2013 R3-B (Catalina-PANSTARRS),e,0.8654,341.9988,11.2660,3.032332,0.1866547,0.27558818,261.9457,10/12.0/2022,2000,g  9.0,4.0
# From MPC 85835
P/2013 T1 (PANSTARRS),e,24.3031,10.0803,346.1592,5.857248,0.0695286,0.62429109,233.1006,10/12.0/2022,2000,g 16.5,4.0
# From MPC 86643
P/2013 T2 (Schwartz),e,9.4576,0.8004,345.5754,3.491666,0.1510620,0.50112486,158.0213,10/12.0/2022,2000,g 16.0,4.0
# From MPC 91613
P/2013 W1 (PANSTARRS),e,4.6963,117.8413,1.2349,3.487772,0.1513150,0.59283043,115.2697,10/12.0/2022,2000,g 17.5,4.0
# From MPC101095
P/2013 YG46 (Spacewatch),e,7.8575,48.8363,242.5971,3.273895,0.1663823,0.45464574,345.6441,10/12.0/2022,2000,g 10.0,4.0
# From MPC 89728
P/2014 A2 (Hill),e,24.5430,106.6317,356.1492,5.927354,0.0682988,0.64558463,224.6378,10/12.0/2022,2000,g 15.0,4.0
# From MPC 92981
P/2014 A3 (PANSTARRS),e,13.7157,229.9766,214.0920,4.609231,0.0996005,0.24672876,340.8668,10/12.0/2022,2000,g 12.0,4.0
# From MPC102095
P/2014 C1 (TOTAS),e,2.6931,167.8152,23.9052,3.033150,0.1865792,0.45081047,237.9393,10/12.0/2022,2000,g 15.5,4.0
# From MPEC 2022-TA0
C/2014 F3 (Sheppard-Trujillo),e,6.5488,326.4587,4.3995,14.64062,0.0175940,0.61023723,8.8080,10/12.0/2022,2000,g  6.0,4.0
# From MPC 98560
P/2014 L2 (NEOWISE),e,5.1992,149.3468,182.7121,6.304991,0.0622554,0.64801329,187.0253,10/12.0/2022,2000,g 12.0,4.0
# From MPC 90769
P/2014 L3 (Hill),e,6.2692,115.4905,178.7031,8.177212,0.0421499,0.77286687,127.5152,10/12.0/2022,2000,g 16.0,4.0
# From MPC 91614
P/2014 M4 (PANSTARRS),e,3.3422,263.1938,148.0244,5.869024,0.0693195,0.59546134,197.1678,10/12.0/2022,2000,g 15.0,4.0
# From MPEC 2022-K19
P/2014 MG4 (Spacewatch-PANSTARRS),e,9.3675,311.7295,299.0508,5.013205,0.0878074,0.25897360,298.8360,10/12.0/2022,2000,g  9.5,4.0
# From MPC 98560
P/2014 O3 (PANSTARRS),e,7.7973,87.6416,204.7743,7.575269,0.0472723,0.38467604,146.4592,10/12.0/2022,2000,g 10.5,4.0
# From MPEC 2022-ST7
C/2014 OG392 (PANSTARRS),e,9.0329,145.7997,254.3054,12.25097,0.0229852,0.18618310,7.1268,10/12.0/2022,2000,g  6.0,4.0
# From MPC 91616
P/2014 U4 (PANSTARRS),e,6.4292,11.8844,347.8241,3.508464,0.1499783,0.46489482,90.7910,10/12.0/2022,2000,g 18.0,4.0
# From MPEC 2022-TA0
C/2014 UN271 (Bernardinelli-Bernstein),h,01/23.0196/2031,95.4300,189.8976,326.2647,1.000536,10.943995,2000,2.5,3.2
# From MPC 95211
P/2014 V1 (PANSTARRS),e,22.5265,166.1999,177.6463,5.479592,0.0768390,0.53447662,216.2873,10/12.0/2022,2000,g 14.0,4.0
# From MPC 93586
P/2014 W1 (PANSTARRS),e,8.8362,246.2347,152.1443,4.465949,0.1044320,0.38927049,314.7495,10/12.0/2022,2000,g 15.5,4.0
# From MPC105542
P/2014 W4 (PANSTARRS),e,15.2827,33.3858,67.6118,6.589526,0.0582670,0.35314764,144.3669,10/12.0/2022,2000,g 11.0,4.0
# From MPC 94281
P/2014 X1 (Elenin),e,26.0432,61.5572,33.8758,6.205374,0.0637606,0.70942827,181.1590,10/12.0/2022,2000,g 15.0,4.0
# From MPC 92275
P/2015 A3 (PANSTARRS),e,172.5396,277.3029,249.4323,7.814499,0.0451183,0.85042787,126.0544,10/12.0/2022,2000,g 20.0,4.0
# From MPC 99270
P/2015 B1 (PANSTARRS),e,18.0507,352.9294,188.8853,9.491887,0.0337035,0.36661058,87.2565,10/12.0/2022,2000,g  8.5,4.0
# From MPC109141
P/2015 B4 (Lemmon-PANSTARRS),e,1.7628,266.0551,227.2800,8.518369,0.0396433,0.56043895,111.3449,10/12.0/2022,2000,g 11.0,4.0
# From MPC101096
P/2015 C1 (TOTAS-Gibbs),e,13.9143,348.7948,178.1278,6.575750,0.0584502,0.56079162,159.5196,10/12.0/2022,2000,g 12.5,4.0
# From MPC109141
P/2015 D5 (Kowalski),e,20.5300,74.0699,39.6805,8.955380,0.0367771,0.48974714,114.6081,10/12.0/2022,2000,g  9.0,4.0
# From MPC 96866
P/2015 D6 (Lemmon-PANSTARRS),e,20.2049,45.8745,125.0300,7.136918,0.0516937,0.36130029,137.7256,10/12.0/2022,2000,g 10.5,4.0
# From MPEC 2021-P47
P/2015 HG16 (PANSTARRS),e,18.8296,57.5807,47.6312,4.773360,0.0945078,0.35223064,290.1371,10/12.0/2022,2000,g 12.5,4.0
# From MPC 95213
P/2015 K5 (PANSTARRS),e,39.9438,134.2067,106.3315,6.725987,0.0565028,0.55202807,151.9799,10/12.0/2022,2000,g 13.5,4.0
# From MPC107684
P/2015 M2 (PANSTARRS),e,3.9698,86.5844,225.9490,7.241841,0.0505744,0.17999220,130.7629,10/12.0/2022,2000,g  8.5,4.0
# From MPEC 2021-P47
C/2015 O1 (PANSTARRS),h,02/20.1915/2018,127.1842,299.8325,89.5498,1.001464,3.721871,2000,6.5,4.0
# From MPC 99819
P/2015 P4 (PANSTARRS),e,8.7175,104.6912,280.6523,6.046852,0.0662842,0.58566770,162.6457,10/12.0/2022,2000,g 14.0,4.0
# From MPEC 2022-K19
P/2015 PD229 (Cameron-ISON),e,2.0253,342.6532,352.6707,7.191725,0.0511040,0.32769790,133.4905,10/12.0/2022,2000,g 11.5,2.0
# From MPC 96867
P/2015 Q2 (Pimentel),e,146.5449,228.5227,244.6332,7.353234,0.0494295,0.75059987,128.1212,10/12.0/2022,2000,g 15.5,4.0
# From MPC 98562
P/2015 R1 (PANSTARRS),e,22.6963,48.3345,300.5671,5.880409,0.0691183,0.63433450,183.8671,10/12.0/2022,2000,g 14.0,4.0
# From MPC 95734
P/2015 R2 (PANSTARRS),e,15.4853,168.5968,149.8472,4.485761,0.1037409,0.45281107,277.4867,10/12.0/2022,2000,g 14.5,4.0
# From MPC 96280
P/2015 T3 (PANSTARRS),e,13.0937,120.5019,178.6330,4.326181,0.1095335,0.50818108,359.9227,12/21.0/2014,2000,g 14.0,4.0
# From MPC102953
P/2015 TO19 (Lemmon-PANSTARRS),e,6.5005,321.6322,89.1665,4.552396,0.1014715,0.35924029,244.5040,10/12.0/2022,2000,g 14.0,4.0
# From MPC110080
P/2015 TP200 (LINEAR),e,8.7806,7.0197,82.4487,7.265517,0.0503274,0.53605172,109.4403,10/12.0/2022,2000,g 11.0,4.0
# From MPC115881
C/2015 V1 (PANSTARRS),e,139.2306,197.1407,179.6920,2299,0.0000089,0.99813814,0.0000,12/16.4376/2017,2000,g  6.5,4.0
# From MPC101098
P/2015 W2 (Catalina),e,11.6094,294.1638,117.5379,7.290992,0.0500638,0.63514629,128.4222,10/12.0/2022,2000,g 13.0,4.0
# From MPEC 2022-OB6
C/2015 XY1 (Lemmon),e,148.8515,281.5790,196.1419,239653,0.0000000,0.99996693,0.0000,04/25.6819/2018,2000,g  5.5,4.0
# From MPEC 2022-OB6
P/2015 X3 (PANSTARRS),e,24.4006,77.2745,306.7427,5.003852,0.0880536,0.43996547,230.5009,10/12.0/2022,2000,g 15.0,4.0
# From MPC119995
C/2015 X5 (PANSTARRS),e,124.3173,122.3120,27.5486,12181,0.0000007,0.99944219,0.0000,12/27.2894/2017,2000,g  7.5,4.0
# From MPC115881
P/2015 X6 (PANSTARRS),e,4.5648,106.9343,329.7846,2.752569,0.2158225,0.17306425,156.4496,10/12.0/2022,2000,g 16.0,4.0
# From MPEC 2022-O08
C/2016 A1 (PANSTARRS),e,121.2137,128.1737,10.0979,8698,0.0000012,0.99938873,0.0000,11/20.8616/2017,2000,g  6.0,4.0
# From MPC100282
P/2016 A2 (Christensen),e,26.4034,291.6177,141.2923,4.753541,0.0950995,0.27081041,254.6891,10/12.0/2022,2000,g 11.5,4.0
# From MPEC 2022-OB6
P/2016 A3 (PANSTARRS),e,8.5107,187.2269,340.9373,7.881140,0.0445472,0.38604723,88.8622,10/12.0/2022,2000,g 10.0,4.0
# From MPC102098
P/2016 A7 (PANSTARRS),e,16.6030,221.4972,352.5422,5.034885,0.0872408,0.56440938,211.6532,10/12.0/2022,2000,g 16.0,4.0
# From MPC109143
P/2016 BA14 (PANSTARRS),e,18.8970,180.5131,351.9606,3.026439,0.1872002,0.66469737,90.1995,10/12.0/2022,2000,g 21.0,4.0
# From MPEC 2021-P47
P/2016 G1 (PANSTARRS),e,10.9711,204.0197,111.1375,2.582599,0.2374754,0.21080827,135.1675,10/12.0/2022,2000,g 14.0,4.0
# From MPEC 2017-D91
P/2016 J1-A (PANSTARRS),e,14.3289,199.8108,47.0278,3.172093,0.1744558,0.22767598,40.6772,10/12.0/2022,2000,g 16.5,4.0
# From MPEC 2017-A77
P/2016 J1-B (PANSTARRS),e,14.3317,199.8156,46.9190,3.171727,0.1744859,0.22752698,40.8221,10/12.0/2022,2000,g 17.0,4.0
